STARLINK-32771          
1 62573U 25006V   26068.02309429  .00051745  00000+0  18773-2 0  9996
2 62573  43.0037 296.0830 0001733 261.5272  98.5383 15.27570328 64768
REAL                    
1 64875U 25154G   26068.72233414  .00022901  00000+0  82904-3 0  9994
2 64875  97.4133 137.2581 0001853 118.5876 241.5550 15.28408058 34830
